CORVUS BC4              
1 43767U 18099K   26186.11629337  .00007000  00000+0  40376-3 0  9998
2 43767  97.4053 228.5721 0006652 305.0017  55.0589 15.12648485415117
M2 PATHFINDER           
1 45727U 20037E   26186.46721292  .00003753  00000+0  27018-3 0  9991
2 45727  97.8155  17.9045 0013119  91.7951 268.4777 15.04767672328240
NETSAT-4                
1 46504U 20068U   26186.26940387  .00026865  00000+0  58017-3 0  9997
2 46504  97.8604 195.9703 0003670 235.4445 124.6456 15.44505434318568
NETSAT-3                
1 46505U 20068V   26186.48391064  .00023553  00000+0  52921-3 0  9993
2 46505  97.8655 194.3961 0002969 259.5666 100.5246 15.43357685318502
NETSAT-1                
1 46506U 20068W   26186.45518755  .00016178  00000+0  47728-3 0  9993
2 46506  97.8751 188.4783 0002794 321.7310  38.3733 15.35084457318100
NETSAT-2                
1 46507U 20068X   26186.02472226  .00037020  00000+0  73736-3 0  9996
2 46507  97.8616 195.6674 0001386 280.7031  79.4061 15.46818020318495
GREENCUBE (IO-117)      
1 53109U 22080E   26186.23812327 -.00000003  00000+0  00000+0 0  9993
2 53109  70.1429 291.9681 0008934 285.8124  74.1550  6.42583233 93227
SITRO-AIS 5 (KATYS)     
1 57176U 23091L   26186.38650510  .00017983  00000+0  62168-3 0  9995
2 57176  97.5046 250.4630 0011635  45.8632 314.3563 15.29906996167121
SITRO-AIS 6 (CHIRKIN)   
1 57192U 23091AC  26186.34226706  .00016029  00000+0  61852-3 0  9994
2 57192  97.5052 249.4402 0012161  49.5387 310.6909 15.26306510167052
SITRO-AIS 8 (ANOKHIN)   
1 57193U 23091AD  26186.37129251  .00021204  00000+0  67239-3 0  9991
2 57193  97.5041 252.1113 0010502  42.1183 318.0864 15.32670184167231
SITRO-AIS 7 (FARTUSHNIY)
1 57194U 23091AE  26186.41474567  .00014587  00000+0  56870-3 0  9995
2 57194  97.5049 249.3285 0012113  50.3943 309.8363 15.25985579167054
SITRO-AIS 10 (BURDAEV)  
1 57199U 23091AK  26186.39028290  .00028848  00000+0  73846-3 0  9992
2 57199  97.5068 257.3754 0005818  20.3075 339.8400 15.39353688167563
SITRO-AIS 9 (SHCHUKIN)  
1 57201U 23091AM  26186.42256928  .00029097  00000+0  75713-3 0  9993
2 57201  97.5066 257.1239 0006096  20.1356 340.0128 15.38846624167556
SITRO-AIS 12 (SMIRENNIY)
1 57204U 23091AQ  26186.34470569  .00029894  00000+0  77048-3 0  9994
2 57204  97.5079 257.5228 0005599  14.4252 345.7152 15.39137120167568
SITRO-AIS 11 (SHEFFER)  
1 57208U 23091AU  26186.35304588  .00030846  00000+0  78358-3 0  9990
2 57208  97.5076 257.7894 0005483  13.7024 346.4369 15.39575514167584
SITRO-AIS 25            
1 59066U 24039R   26186.59945705  .00003541  00000+0  27778-3 0  9997
2 59066  95.3897 247.7454 0142206 263.5139  94.9879 14.93609642127477
SITRO-AIS 26            
1 59067U 24039S   26186.60335563  .00003024  00000+0  23870-3 0  9990
2 59067  95.3897 247.6420 0142576 264.1139  94.3820 14.93402013127469
SITRO-AIS 27            
1 59068U 24039T   26186.63541140  .00003631  00000+0  28338-3 0  9992
2 59068  95.3893 247.9443 0141776 262.5358  95.9740 14.93821762127497
SITRO-AIS 28            
1 59071U 24039U   26186.61243683  .00002969  00000+0  23221-3 0  9994
2 59071  95.3899 247.9770 0141610 262.4765  96.0355 14.93857740127497
GRBBETA                 
1 60237U 24128C   26186.27158105  .00005640  00000+0  38515-3 0  9996
2 60237  61.9890 152.8112 0038365 138.4266 221.9756 15.06760954108990
OOV-CUBE (TUBSAT-30)    
1 60240U 24128F   26186.41984973  .00003114  00000+0  24244-3 0  9994
2 60240  61.9939 161.9927 0042330 137.7916 222.6447 15.02846916108853
ROBUSTA-3A (MEDITERRAN*)
1 60243U 24128J   26186.32427554  .00011981  00000+0  69526-3 0  9997
2 60243  61.9859 144.0950 0039232 131.5735 228.8735 15.11887508109168
LASARSAT                
1 62391U 24247Q   26186.31608841  .00054763  00000+0  10397-2 0  9990
2 62391  44.9732 160.2588 0006390  93.0932 267.0690 15.47537477 86123
CROCUBE                 
1 62394U 24247T   26186.35536949  .00062671  00000+0  11046-2 0  9995
2 62394  44.9708 157.0633 0006223  99.0627 261.0968 15.49608608 86169
FORESAIL-1 PRIME        
1 66778U 25276DS  26186.18066402  .00007870  00000+0  38048-3 0  9993
2 66778  97.4189 259.1235 0003564  66.2467 293.9142 15.18875849 33136
KNACKSAT-2              
1 67683U 98067XZ  26186.34242884  .00066136  00000+0  75157-3 0  9997
2 67683  51.6259 203.0471 0008318 292.9650  67.0466 15.61655253 23115
